{
    "links": {
        "self": "http://www.neowsapp.com/rest/v1/neo/3842872?api_key=iIulBulltgU6a56xZRHN4H3l9WmuAYTsLGpBGhQ2"
    },
    "id": "3842872",
    "neo_reference_id": "3842872",
    "name": "(2019 LV4)",
    "designation": "2019 LV4",
    "nasa_jpl_url": "http://ssd.jpl.nasa.gov/sbdb.cgi?sstr=3842872",
    "absolute_magnitude_h": 26.1,
    "estimated_diameter": {
        "kilometers": {
            "estimated_diameter_min": 0.0160160338,
            "estimated_diameter_max": 0.0358129403
        },
        "meters": {
            "estimated_diameter_min": 16.0160337979,
            "estimated_diameter_max": 35.8129403019
        },
        "miles": {
            "estimated_diameter_min": 0.0099518989,
            "estimated_diameter_max": 0.0222531225
        },
        "feet": {
            "estimated_diameter_min": 52.5460443254,
            "estimated_diameter_max": 117.4965270602
        }
    },
    "is_potentially_hazardous_asteroid": false,
    "close_approach_data": [
        {
            "close_approach_date": "1932-10-02",
            "close_approach_date_full": "1932-Oct-02 10:57",
            "epoch_date_close_approach": -1175432580000,
            "relative_velocity": {
                "kilometers_per_second": "20.6316635551",
                "kilometers_per_hour": "74273.9887981879",
                "miles_per_hour": "46150.9682062963"
            },
            "miss_distance": {
                "astronomical": "0.3577129804",
                "lunar": "139.1503493756",
                "kilometers": "53513099.939191748",
                "miles": "33251498.4097442024"
            },
            "orbiting_body": "Earth"
        },
        {
            "close_approach_date": "2019-06-08",
            "close_approach_date_full": "2019-Jun-08 13:23",
            "epoch_date_close_approach": 1560000180000,
            "relative_velocity": {
                "kilometers_per_second": "11.5432844991",
                "kilometers_per_hour": "41555.8241968806",
                "miles_per_hour": "25821.1730961117"
            },
            "miss_distance": {
                "astronomical": "0.0210910268",
                "lunar": "8.2044094252",
                "kilometers": "3155172.685392916",
                "miles": "1960533.3955616008"
            },
            "orbiting_body": "Earth"
        },
        {
            "close_approach_date": "2106-09-22",
            "close_approach_date_full": "2106-Sep-22 11:16",
            "epoch_date_close_approach": 4314597360000,
            "relative_velocity": {
                "kilometers_per_second": "14.1553887564",
                "kilometers_per_hour": "50959.3995230062",
                "miles_per_hour": "31664.1891091701"
            },
            "miss_distance": {
                "astronomical": "0.1800598783",
                "lunar": "70.0432926587",
                "kilometers": "26936574.266139221",
                "miles": "16737611.1156384098"
            },
            "orbiting_body": "Earth"
        }
    ],
    "orbital_data": {
        "orbit_id": "1",
        "orbit_determination_date": "2019-06-17 04:42:18",
        "first_observation_date": "2019-05-26",
        "last_observation_date": "2019-06-08",
        "data_arc_in_days": 13,
        "observations_used": 41,
        "orbit_uncertainty": "7",
        "minimum_orbit_intersection": ".0161705",
        "jupiter_tisserand_invariant": "3.748",
        "epoch_osculation": "2459000.5",
        "eccentricity": ".5209775344521343",
        "semi_major_axis": "1.909609024591157",
        "inclination": "8.505939918242332",
        "ascending_node_longitude": "250.1530169074496",
        "orbital_period": "963.8625678221655",
        "perihelion_distance": ".9147456231921107",
        "perihelion_argument": "51.60644207677163",
        "aphelion_distance": "2.904472425990203",
        "perihelion_time": "2458678.039692662332",
        "mean_anomaly": "120.4380318491406",
        "mean_motion": ".3734972308483928",
        "equinox": "J2000",
        "orbit_class": {
            "orbit_class_type": "APO",
            "orbit_class_description": "Near-Earth asteroid orbits which cross the Earth’s orbit similar to that of 1862 Apollo",
            "orbit_class_range": "a (semi-major axis) > 1.0 AU; q (perihelion) < 1.017 AU"
        }
    },
    "is_sentry_object": false
}